%CRRES
%1 20712U 90065  A 90362.07714058  .00001110 +00000-0 +10425-2 0 00835
%2 20712 018.2570 343.6531 7126488 317.9439 005.1830 02.43673536003801
